38040,GLOBALSTAR M084,2011,114.08,700.0,+,52.0,Active,1,LEO,Kazakhstan,Globalstar,Commercial,Communications,Soyuz,1 38040U 11080A   24181.53700681 -.00000089  00000+0  82520-4 0  9999,2 38040  52.0023  42.0690 0000924  57.8666 330.9430 12.62263882578139,12.62263882,9.24e-05,LEO
38041,GLOBALSTAR M080,2011,114.08,700.0,+,52.01,Active,1,LEO,Kazakhstan,Globalstar,Commercial,Communications,Soyuz,1 38041U 11080B   24181.59028552 -.00000078  00000+0  14190-3 0  9991,2 38041  52.0077  43.3893 0000780  43.7276 347.7401 12.62262444578260,12.62262444,7.8e-05,LEO
38042,GLOBALSTAR M082,2011,114.08,700.0,+,52.01,Active,1,LEO,Kazakhstan,Globalstar,Commercial,Communications,Soyuz,1 38042U 11080C   24181.52127179 -.00000090  00000+0  74286-4 0  9997,2 38042  52.0092 359.0095 0001348 110.7956 266.2663 12.62270724578962,12.62270724,0.0001348,LEO
38043,GLOBALSTAR M092,2011,114.08,700.0,+,52.01,Active,1,LEO,Kazakhstan,Globalstar,Commercial,Communications,Soyuz,1 38043U 11080D   24181.52869897 -.00000094  00000+0  51953-4 0  9998,2 38043  52.0088  89.3424 0000757  52.7545 118.7865 12.62263067577415,12.62263067,7.57e-05,LEO
38044,GLOBALSTAR M090,2011,114.08,700.0,+,51.99,Active,1,LEO,Kazakhstan,Globalstar,Commercial,Communications,Soyuz,1 38044U 11080E   24181.54937580 -.00000094  00000+0  51987-4 0  9993,2 38044  51.9904 353.1870 0001033 108.4028 276.3083 12.62264367579083,12.62264367,0.0001033,LEO
38045,GLOBALSTAR M086,2011,114.08,700.0,+,51.99,Active,1,LEO,Kazakhstan,Globalstar,Commercial,Communications,Soyuz,1 38045U 11080F   24181.58732060 -.00000083  00000+0  11545-3 0  9997,2 38045  51.9915 353.5936 0000310 186.4093 251.6437 12.62263782579032,12.62263782,3.1e-05,LEO
39072,GLOBALSTAR M097,2013,114.08,700.0,+,52.0,Active,1,LEO,Kazakhstan,Globalstar,Commercial,Communications,Soyuz,1 39072U 13005A   24181.51797995 -.00000098  00000+0  34501-4 0  9992,2 39072  52.0048 267.9989 0000668 155.5902 204.4997 12.62263944526275,12.62263944,6.68e-05,LEO
39073,GLOBALSTAR M093,2013,114.08,700.0,+,51.98,Active,1,LEO,Kazakhstan,Globalstar,Commercial,Communications,Soyuz,1 39073U 13005B   24181.49127748 -.00000083  00000+0  11765-3 0  9993,2 39073  51.9809 261.9460 0000723 169.8937 190.1944 12.62275543526221,12.62275543,7.23e-05,LEO
